CCSDS_OMM_VERS = 2.0
CREATION_DATE  = 
ORIGINATOR     = 

OBJECT_NAME    = STARLINK-35781
OBJECT_ID      = 2025-299J
CENTER_NAME    = EARTH
REF_FRAME      = TEME
TIME_SYSTEM    = UTC
MEAN_ELEMENT_THEORY = SGP/SGP4

EPOCH          = 2026-01-05T06:00:02.000160
MEAN_MOTION    = 15.50622351
ECCENTRICITY   = .00016313
INCLINATION    = 43.0001
RA_OF_ASC_NODE = 174.4254
ARG_OF_PERICENTER = 271.0418
MEAN_ANOMALY   = 4.4734

EPHEMERIS_TYPE = 0
CLASSIFICATION_TYPE = U
NORAD_CAT_ID   = 67110
ELEMENT_SET_NO = 999
REV_AT_EPOCH   = 453
BSTAR          = -.23306409E-2
MEAN_MOTION_DOT = -.13495E-2
MEAN_MOTION_DDOT = 0

CCSDS_OMM_VERS = 2.0
CREATION_DATE  = 
ORIGINATOR     = 

OBJECT_NAME    = STARLINK-35875
OBJECT_ID      = 2025-299K
CENTER_NAME    = EARTH
REF_FRAME      = TEME
TIME_SYSTEM    = UTC
MEAN_ELEMENT_THEORY = SGP/SGP4

EPOCH          = 2026-01-05T06:00:02.000160
MEAN_MOTION    = 15.50634499
ECCENTRICITY   = .00016374
INCLINATION    = 42.9999
RA_OF_ASC_NODE = 174.4305
ARG_OF_PERICENTER = 261.6873
MEAN_ANOMALY   = 11.8763

EPHEMERIS_TYPE = 0
CLASSIFICATION_TYPE = U
NORAD_CAT_ID   = 67111
ELEMENT_SET_NO = 999
REV_AT_EPOCH   = 447
BSTAR          = -.1939802E-2
MEAN_MOTION_DOT = -.112742E-2
MEAN_MOTION_DDOT = 0

CCSDS_OMM_VERS = 2.0
CREATION_DATE  = 
ORIGINATOR     = 

OBJECT_NAME    = STARLINK-35906
OBJECT_ID      = 2025-299L
CENTER_NAME    = EARTH
REF_FRAME      = TEME
TIME_SYSTEM    = UTC
MEAN_ELEMENT_THEORY = SGP/SGP4

EPOCH          = 2026-01-05T06:00:02.000160
MEAN_MOTION    = 15.50604301
ECCENTRICITY   = .00015194
INCLINATION    = 42.9999
RA_OF_ASC_NODE = 174.4211
ARG_OF_PERICENTER = 278.7043
MEAN_ANOMALY   = 358.7282

EPHEMERIS_TYPE = 0
CLASSIFICATION_TYPE = U
NORAD_CAT_ID   = 67112
ELEMENT_SET_NO = 999
REV_AT_EPOCH   = 447
BSTAR          = -.16952729E-2
MEAN_MOTION_DOT = -.98641E-3
MEAN_MOTION_DDOT = 0

CCSDS_OMM_VERS = 2.0
CREATION_DATE  = 
ORIGINATOR     = 

OBJECT_NAME    = STARLINK-35789
OBJECT_ID      = 2025-299M
CENTER_NAME    = EARTH
REF_FRAME      = TEME
TIME_SYSTEM    = UTC
MEAN_ELEMENT_THEORY = SGP/SGP4

EPOCH          = 2026-01-05T06:00:02.000160
MEAN_MOTION    = 15.50631856
ECCENTRICITY   = .00014969
INCLINATION    = 42.9999
RA_OF_ASC_NODE = 174.4150
ARG_OF_PERICENTER = 264.8739
MEAN_ANOMALY   = 14.4442

EPHEMERIS_TYPE = 0
CLASSIFICATION_TYPE = U
NORAD_CAT_ID   = 67113
ELEMENT_SET_NO = 999
REV_AT_EPOCH   = 447
BSTAR          = -.19437184E-2
MEAN_MOTION_DOT = -.112953E-2
MEAN_MOTION_DDOT = 0

CCSDS_OMM_VERS = 2.0
CREATION_DATE  = 
ORIGINATOR     = 

OBJECT_NAME    = STARLINK-36180
OBJECT_ID      = 2025-299N
CENTER_NAME    = EARTH
REF_FRAME      = TEME
TIME_SYSTEM    = UTC
MEAN_ELEMENT_THEORY = SGP/SGP4

EPOCH          = 2026-01-05T06:00:02.000160
MEAN_MOTION    = 15.50589756
ECCENTRICITY   = .00016709
INCLINATION    = 42.9998
RA_OF_ASC_NODE = 174.4107
ARG_OF_PERICENTER = 260.9350
MEAN_ANOMALY   = 20.3383

EPHEMERIS_TYPE = 0
CLASSIFICATION_TYPE = U
NORAD_CAT_ID   = 67114
ELEMENT_SET_NO = 999
REV_AT_EPOCH   = 458
BSTAR          = -.1042124E-2
MEAN_MOTION_DOT = -.61028E-3
MEAN_MOTION_DDOT = 0

CCSDS_OMM_VERS = 2.0
CREATION_DATE  = 
ORIGINATOR     = 

OBJECT_NAME    = STARLINK-35892
OBJECT_ID      = 2025-299P
CENTER_NAME    = EARTH
REF_FRAME      = TEME
TIME_SYSTEM    = UTC
MEAN_ELEMENT_THEORY = SGP/SGP4

EPOCH          = 2026-01-05T06:00:02.000160
MEAN_MOTION    = 15.47794340
ECCENTRICITY   = .00016181
INCLINATION    = 43.0000
RA_OF_ASC_NODE = 174.4132
ARG_OF_PERICENTER = 262.5463
MEAN_ANOMALY   = 17.4783

EPHEMERIS_TYPE = 0
CLASSIFICATION_TYPE = U
NORAD_CAT_ID   = 67115
ELEMENT_SET_NO = 999
REV_AT_EPOCH   = 447
BSTAR          = -.44455329E-1
MEAN_MOTION_DOT = -.2097798E-1
MEAN_MOTION_DDOT = 0

CCSDS_OMM_VERS = 2.0
CREATION_DATE  = 
ORIGINATOR     = 

OBJECT_NAME    = STARLINK-35738
OBJECT_ID      = 2025-299Q
CENTER_NAME    = EARTH
REF_FRAME      = TEME
TIME_SYSTEM    = UTC
MEAN_ELEMENT_THEORY = SGP/SGP4

EPOCH          = 2026-01-05T06:00:02.000160
MEAN_MOTION    = 15.50695308
ECCENTRICITY   = .00018376
INCLINATION    = 42.9998
RA_OF_ASC_NODE = 174.4012
ARG_OF_PERICENTER = 259.4021
MEAN_ANOMALY   = 25.6644

EPHEMERIS_TYPE = 0
CLASSIFICATION_TYPE = U
NORAD_CAT_ID   = 67116
ELEMENT_SET_NO = 999
REV_AT_EPOCH   = 447
BSTAR          = -.52581993E-2
MEAN_MOTION_DOT = -.298602E-2
MEAN_MOTION_DDOT = 0

CCSDS_OMM_VERS = 2.0
CREATION_DATE  = 
ORIGINATOR     = 

OBJECT_NAME    = STARLINK-35674
OBJECT_ID      = 2025-299R
CENTER_NAME    = EARTH
REF_FRAME      = TEME
TIME_SYSTEM    = UTC
MEAN_ELEMENT_THEORY = SGP/SGP4

EPOCH          = 2026-01-05T06:00:02.000160
MEAN_MOTION    = 15.40645596
ECCENTRICITY   = .00021289
INCLINATION    = 43.0003
RA_OF_ASC_NODE = 174.4865
ARG_OF_PERICENTER = 267.5679
MEAN_ANOMALY   = 342.7095

EPHEMERIS_TYPE = 0
CLASSIFICATION_TYPE = U
NORAD_CAT_ID   = 67117
ELEMENT_SET_NO = 999
REV_AT_EPOCH   = 438
BSTAR          = .1090615E-2
MEAN_MOTION_DOT = .45445E-3
MEAN_MOTION_DDOT = 0

CCSDS_OMM_VERS = 2.0
CREATION_DATE  = 
ORIGINATOR     = 

OBJECT_NAME    = STARLINK-35701
OBJECT_ID      = 2025-299S
CENTER_NAME    = EARTH
REF_FRAME      = TEME
TIME_SYSTEM    = UTC
MEAN_ELEMENT_THEORY = SGP/SGP4

EPOCH          = 2026-01-05T06:00:02.000160
MEAN_MOTION    = 15.50594738
ECCENTRICITY   = .00015977
INCLINATION    = 43.0000
RA_OF_ASC_NODE = 174.3924
ARG_OF_PERICENTER = 264.3206
MEAN_ANOMALY   = 24.6202

EPHEMERIS_TYPE = 0
CLASSIFICATION_TYPE = U
NORAD_CAT_ID   = 67118
ELEMENT_SET_NO = 999
REV_AT_EPOCH   = 453
BSTAR          = -.1351258E-2
MEAN_MOTION_DOT = -.78865E-3
MEAN_MOTION_DDOT = 0

CCSDS_OMM_VERS = 2.0
CREATION_DATE  = 
ORIGINATOR     = 

OBJECT_NAME    = STARLINK-36179
OBJECT_ID      = 2025-299T
CENTER_NAME    = EARTH
REF_FRAME      = TEME
TIME_SYSTEM    = UTC
MEAN_ELEMENT_THEORY = SGP/SGP4

EPOCH          = 2026-01-05T06:00:02.000160
MEAN_MOTION    = 15.41556953
ECCENTRICITY   = .00011477
INCLINATION    = 43.0001
RA_OF_ASC_NODE = 174.4567
ARG_OF_PERICENTER = 278.8835
MEAN_ANOMALY   = 343.3529

EPHEMERIS_TYPE = 0
CLASSIFICATION_TYPE = U
NORAD_CAT_ID   = 67119
ELEMENT_SET_NO = 999
REV_AT_EPOCH   = 458
BSTAR          = -.30965845E-1
MEAN_MOTION_DOT = -.1208982E-1
MEAN_MOTION_DDOT = 0

CCSDS_OMM_VERS = 2.0
CREATION_DATE  = 
ORIGINATOR     = 

OBJECT_NAME    = STARLINK-36217
OBJECT_ID      = 2025-299U
CENTER_NAME    = EARTH
REF_FRAME      = TEME
TIME_SYSTEM    = UTC
MEAN_ELEMENT_THEORY = SGP/SGP4

EPOCH          = 2026-01-05T06:00:02.000160
MEAN_MOTION    = 15.50637808
ECCENTRICITY   = .00016163
INCLINATION    = 43.0000
RA_OF_ASC_NODE = 174.3866
ARG_OF_PERICENTER = 258.9048
MEAN_ANOMALY   = 31.9229

EPHEMERIS_TYPE = 0
CLASSIFICATION_TYPE = U
NORAD_CAT_ID   = 67120
ELEMENT_SET_NO = 999
REV_AT_EPOCH   = 458
BSTAR          = -.22350134E-2
MEAN_MOTION_DOT = -.129586E-2
MEAN_MOTION_DDOT = 0

CCSDS_OMM_VERS = 2.0
CREATION_DATE  = 
ORIGINATOR     = 

OBJECT_NAME    = STARLINK-36124
OBJECT_ID      = 2025-299V
CENTER_NAME    = EARTH
REF_FRAME      = TEME
TIME_SYSTEM    = UTC
MEAN_ELEMENT_THEORY = SGP/SGP4

EPOCH          = 2026-01-05T06:00:02.000160
MEAN_MOTION    = 15.50614738
ECCENTRICITY   = .00015837
INCLINATION    = 43.0000
RA_OF_ASC_NODE = 174.3722
ARG_OF_PERICENTER = 271.6527
MEAN_ANOMALY   = 24.9518

EPHEMERIS_TYPE = 0
CLASSIFICATION_TYPE = U
NORAD_CAT_ID   = 67121
ELEMENT_SET_NO = 999
REV_AT_EPOCH   = 458
BSTAR          = -.20170894E-2
MEAN_MOTION_DOT = -.117073E-2
MEAN_MOTION_DDOT = 0

