STARLINK-35781          
1 67110U 25299J   26005.25002315 -.00134950  00000+0 -23306-2 0  9992
2 67110  43.0001 174.4254 0001631 271.0418   4.4734 15.50622351  4530
STARLINK-35875          
1 67111U 25299K   26005.25002315 -.00112742  00000+0 -19398-2 0  9994
2 67111  42.9999 174.4305 0001637 261.6873  11.8763 15.50634499  4471
STARLINK-35906          
1 67112U 25299L   26005.25002315 -.00098641  00000+0 -16953-2 0  9990
2 67112  42.9999 174.4211 0001519 278.7043 358.7282 15.50604301  4473
STARLINK-35789          
1 67113U 25299M   26005.25002315 -.00112953  00000+0 -19437-2 0  9994
2 67113  42.9999 174.4150 0001496 264.8739  14.4442 15.50631856  4477
STARLINK-36180          
1 67114U 25299N   26005.25002315 -.00061028  00000+0 -10421-2 0  9995
2 67114  42.9998 174.4107 0001670 260.9350  20.3383 15.50589756  4582
STARLINK-35892          
1 67115U 25299P   26005.25002315 -.02097798  00000+0 -44455-1 0  9994
2 67115  43.0000 174.4132 0001618 262.5463  17.4783 15.47794340  4474
STARLINK-35738          
1 67116U 25299Q   26005.25002315 -.00298602  00000+0 -52582-2 0  9991
2 67116  42.9998 174.4012 0001837 259.4021  25.6644 15.50695308  4479
STARLINK-35674          
1 67117U 25299R   26005.25002315  .00045445  00000+0  10906-2 0  9999
2 67117  43.0003 174.4865 0002128 267.5679 342.7095 15.40645596  4384
STARLINK-35701          
1 67118U 25299S   26005.25002315 -.00078865  00000+0 -13513-2 0  9991
2 67118  43.0000 174.3924 0001597 264.3206  24.6202 15.50594738  4532
STARLINK-36179          
1 67119U 25299T   26005.25002315 -.01208982  00000+0 -30966-1 0  9998
2 67119  43.0001 174.4567 0001147 278.8835 343.3529 15.41556953  4582
STARLINK-36217          
1 67120U 25299U   26005.25002315 -.00129586  00000+0 -22350-2 0  9990
2 67120  43.0000 174.3866 0001616 258.9048  31.9229 15.50637808  4586
STARLINK-36124          
1 67121U 25299V   26005.25002315 -.00117073  00000+0 -20171-2 0  9998
2 67121  43.0000 174.3722 0001583 271.6527  24.9518 15.50614738  4585
